{
    "links": {
        "self": "http://www.neowsapp.com/rest/v1/neo/3092121?api_key=iIulBulltgU6a56xZRHN4H3l9WmuAYTsLGpBGhQ2"
    },
    "id": "3092121",
    "neo_reference_id": "3092121",
    "name": "(1994 EU)",
    "designation": "1994 EU",
    "nasa_jpl_url": "http://ssd.jpl.nasa.gov/sbdb.cgi?sstr=3092121",
    "absolute_magnitude_h": 25.9,
    "estimated_diameter": {
        "kilometers": {
            "estimated_diameter_min": 0.0175612318,
            "estimated_diameter_max": 0.0392681082
        },
        "meters": {
            "estimated_diameter_min": 17.561231848,
            "estimated_diameter_max": 39.2681081809
        },
        "miles": {
            "estimated_diameter_min": 0.0109120402,
            "estimated_diameter_max": 0.0244000636
        },
        "feet": {
            "estimated_diameter_min": 57.6155918963,
            "estimated_diameter_max": 128.8323800441
        }
    },
    "is_potentially_hazardous_asteroid": false,
    "close_approach_data": [
        {
            "close_approach_date": "1940-12-27",
            "close_approach_date_full": "1940-Dec-27 00:47",
            "epoch_date_close_approach": -915577980000,
            "relative_velocity": {
                "kilometers_per_second": "10.8879325179",
                "kilometers_per_hour": "39196.5570644972",
                "miles_per_hour": "24355.2162493261"
            },
            "miss_distance": {
                "astronomical": "0.2558723067",
                "lunar": "99.5343273063",
                "kilometers": "38277952.074306729",
                "miles": "23784816.5023777002"
            },
            "orbiting_body": "Earth"
        },
        {
            "close_approach_date": "1994-03-03",
            "close_approach_date_full": "1994-Mar-03 12:04",
            "epoch_date_close_approach": 762696240000,
            "relative_velocity": {
                "kilometers_per_second": "5.3567016315",
                "kilometers_per_hour": "19284.1258733604",
                "miles_per_hour": "11982.4058794777"
            },
            "miss_distance": {
                "astronomical": "0.0300286425",
                "lunar": "11.6811419325",
                "kilometers": "4492220.956991475",
                "miles": "2791336.666673355"
            },
            "orbiting_body": "Earth"
        },
        {
            "close_approach_date": "2002-03-30",
            "close_approach_date_full": "2002-Mar-30 11:32",
            "epoch_date_close_approach": 1017487920000,
            "relative_velocity": {
                "kilometers_per_second": "13.3103148819",
                "kilometers_per_hour": "47917.1335747381",
                "miles_per_hour": "29773.8433592588"
            },
            "miss_distance": {
                "astronomical": "0.2974461605",
                "lunar": "115.7065564345",
                "kilometers": "44497312.050478135",
                "miles": "27649347.590882863"
            },
            "orbiting_body": "Earth"
        },
        {
            "close_approach_date": "2039-04-07",
            "close_approach_date_full": "2039-Apr-07 07:31",
            "epoch_date_close_approach": 2185774260000,
            "relative_velocity": {
                "kilometers_per_second": "16.9117978272",
                "kilometers_per_hour": "60882.4721780896",
                "miles_per_hour": "37830.000559769"
            },
            "miss_distance": {
                "astronomical": "0.4222527812",
                "lunar": "164.2563318868",
                "kilometers": "63168116.669096044",
                "miles": "39250847.6121876472"
            },
            "orbiting_body": "Earth"
        }
    ],
    "orbital_data": {
        "orbit_id": "12",
        "orbit_determination_date": "2017-04-06 09:18:17",
        "first_observation_date": "1994-03-10",
        "last_observation_date": "1994-03-22",
        "data_arc_in_days": 12,
        "observations_used": 14,
        "orbit_uncertainty": "8",
        "minimum_orbit_intersection": ".0300028",
        "jupiter_tisserand_invariant": "4.769",
        "epoch_osculation": "2449423.5",
        "eccentricity": ".2762262501729289",
        "semi_major_axis": "1.373680130185583",
        "inclination": "6.437178458677415",
        "ascending_node_longitude": "351.6879894777802",
        "orbital_period": "588.067057187924",
        "perihelion_distance": ".9942336188873587",
        "perihelion_argument": "145.4303770938606",
        "aphelion_distance": "1.753126641483808",
        "perihelion_time": "2449391.954771272498",
        "mean_anomaly": "19.31120303899574",
        "mean_motion": ".6121750837761307",
        "equinox": "J2000",
        "orbit_class": {
            "orbit_class_type": "APO",
            "orbit_class_description": "Near-Earth asteroid orbits which cross the Earth’s orbit similar to that of 1862 Apollo",
            "orbit_class_range": "a (semi-major axis) > 1.0 AU; q (perihelion) < 1.017 AU"
        }
    },
    "is_sentry_object": false
}